{
    "links": {
        "self": "http://www.neowsapp.com/rest/v1/neo/3102714?api_key=iIulBulltgU6a56xZRHN4H3l9WmuAYTsLGpBGhQ2"
    },
    "id": "3102714",
    "neo_reference_id": "3102714",
    "name": "(2001 YR3)",
    "designation": "2001 YR3",
    "nasa_jpl_url": "http://ssd.jpl.nasa.gov/sbdb.cgi?sstr=3102714",
    "absolute_magnitude_h": 22.679,
    "estimated_diameter": {
        "kilometers": {
            "estimated_diameter_min": 0.077402498,
            "estimated_diameter_max": 0.1730772471
        },
        "meters": {
            "estimated_diameter_min": 77.4024979595,
            "estimated_diameter_max": 173.0772470656
        },
        "miles": {
            "estimated_diameter_min": 0.0480956676,
            "estimated_diameter_max": 0.1075451821
        },
        "feet": {
            "estimated_diameter_min": 253.9452114053,
            "estimated_diameter_max": 567.8387552628
        }
    },
    "is_potentially_hazardous_asteroid": false,
    "close_approach_data": [
        {
            "close_approach_date": "2001-12-23",
            "close_approach_date_full": "2001-Dec-23 03:36",
            "epoch_date_close_approach": 1009078560000,
            "relative_velocity": {
                "kilometers_per_second": "13.9949462755",
                "kilometers_per_hour": "50381.8065918727",
                "miles_per_hour": "31305.2953237111"
            },
            "miss_distance": {
                "astronomical": "0.1002715733",
                "lunar": "39.0056420137",
                "kilometers": "15000413.787228871",
                "miles": "9320824.9149895798"
            },
            "orbiting_body": "Earth"
        }
    ],
    "orbital_data": {
        "orbit_id": "9",
        "orbit_determination_date": "2017-04-06 09:15:39",
        "first_observation_date": "2001-12-19",
        "last_observation_date": "2001-12-23",
        "data_arc_in_days": 4,
        "observations_used": 19,
        "orbit_uncertainty": "9",
        "minimum_orbit_intersection": ".0914435",
        "jupiter_tisserand_invariant": "4.044",
        "epoch_osculation": "2452264.5",
        "eccentricity": ".3770536397401069",
        "semi_major_axis": "1.692408405095132",
        "inclination": "23.45562425046225",
        "ascending_node_longitude": "90.0948906115472",
        "orbital_period": "804.1854054456618",
        "perihelion_distance": "1.054279656027263",
        "perihelion_argument": "23.26503874943182",
        "aphelion_distance": "2.330537154163001",
        "perihelion_time": "2452285.004062602701",
        "mean_anomaly": "350.8211931141902",
        "mean_motion": ".4476579624079299",
        "equinox": "J2000",
        "orbit_class": {
            "orbit_class_type": "AMO",
            "orbit_class_description": "Near-Earth asteroid orbits similar to that of 1221 Amor",
            "orbit_class_range": "1.017 AU < q (perihelion) < 1.3 AU"
        }
    },
    "is_sentry_object": false
}